STARLINK-35572
1 66117U 25237D   26186.48060831  .00032417  00000+0  11012-2 0  9996
2 66117  53.1588 212.5840 0001188  61.5258 298.5862 15.30219782 40642
STARLINK-35468
1 66118U 25237E   26186.36264361  .00020942  00000+0  71667-3 0  9991
2 66118  53.1568 213.2722 0000826  74.7657 285.3435 15.30224006 40628
STARLINK-35547
1 66119U 25237F   26186.35882243  .00025665  00000+0  76775-3 0  9998
2 66119  53.1580 212.5348 0001057  85.8005 274.3118 15.34415913 40636
STARLINK-35553
1 66120U 25237G   26186.30623234 -.00012274  00000+0 -35291-3 0  9990
2 66120  53.1568 212.2123 0000842  70.4096 289.6997 15.34383466 40634
STARLINK-35631
1 66121U 25237H   26186.36052507  .00022447  00000+0  76730-3 0  9990
2 66121  53.1576 213.2563 0001031  73.1843 286.9271 15.30218087 40620
STARLINK-35653
1 66122U 25237J   26186.54381238  .00021155  00000+0  72315-3 0  9997
2 66122  53.1578 212.2654 0000900  73.9769 286.1331 15.30253181 40658
STARLINK-35628
1 66123U 25237K   26186.46173936  .00032186  00000+0  95869-3 0  9998
2 66123  53.1587 211.7546 0000787  91.7562 268.3531 15.34431669 40652
STARLINK-35645
1 66124U 25237L   26186.78321966  .00010042  00000+0  30811-3 0  9995
2 66124  53.1592 210.2053 0001419  74.9429 285.1730 15.34384046 40704
STARLINK-35649
1 66125U 25237M   26186.77903860  .00050472  00000+0  14964-2 0  9995
2 66125  53.1585 210.1811 0001201  59.3249 300.7871 15.34369308 40708
STARLINK-35658
1 66126U 25237N   26186.50583373  .00031117  00000+0  92717-3 0  9998
2 66126  53.1576 211.3191 0001166  93.4925 266.6211 15.34437542 40651
STARLINK-35629
1 66127U 25237P   26186.56387826  .00018124  00000+0  62205-3 0  9992
2 66127  53.1566 212.3874 0001109  86.4385 273.6742 15.30225753 40651
STARLINK-35612
1 66128U 25237Q   26186.35947432  .00019444  00000+0  66633-3 0  9990
2 66128  53.1568 213.2496 0000977  86.9206 273.1907 15.30227116 40623
STARLINK-35632
1 66129U 25237R   26186.48377315  .00032520  00000+0  11046-2 0  9999
2 66129  53.1576 212.6030 0000784  69.2535 290.8550 15.30220111 40645
STARLINK-35637
1 66130U 25237S   26186.47744284  .00023419  00000+0  79995-3 0  9998
2 66130  53.1593 212.5608 0001076  81.8561 278.2562 15.30215327 40646
STARLINK-35630
1 66131U 25237T   26186.50373130  .00035494  00000+0  10558-2 0  9996
2 66131  53.1572 211.3099 0001175  61.5117 298.6003 15.34424940 40662
STARLINK-34412
1 66132U 25237U   26186.46384403  .00024537  00000+0  73456-3 0  9990
2 66132  53.1582 211.7684 0001130  90.9423 269.1709 15.34417190 40569
STARLINK-35520
1 66133U 25237V   26186.31250877  .00014376  00000+0  43615-3 0  9996
2 66133  53.1579 212.2456 0000803 101.7729 258.3363 15.34373906 40635
STARLINK-35525
1 66134U 25237W   26186.75004630 -.00010687  00000+0 -30614-3 0  9997
2 66134  53.1581 210.3850 0001069  60.1570 104.9854 15.34345461  5911
STARLINK-34852
1 66135U 25237X   26186.48485431  .00022322  00000+0  76363-3 0  9998
2 66135  53.1572 212.6058 0001123  57.4913 302.6197 15.30195636 40603
STARLINK-35592
1 66136U 25237Y   26186.77480470  .00033210  00000+0  98928-3 0  9998
2 66136  53.1578 210.1518 0001718  73.1200 286.9991 15.34412972 40704
STARLINK-35576
1 66137U 25237Z   26186.44701230  .00032217  00000+0  95948-3 0  9998
2 66137  53.1567 211.6624 0001179  62.4183 297.6939 15.34434868 40652
STARLINK-35623
1 66138U 25237AA  26186.36580763 -.00014428  00000+0 -47588-3 0  9999
2 66138  53.1569 213.2821 0001213  65.9723 294.1404 15.30204585 40622
STARLINK-35549
1 66139U 25237AB  26186.36303336  .00027867  00000+0  83182-3 0  9998
2 66139  53.1589 212.5576 0000953 108.2215 251.8891 15.34438084 40639
STARLINK-35625
1 66140U 25237AC  26186.77690404  .00011715  00000+0  35733-3 0  9994
2 66140  53.1583 210.1642 0001199 114.1364 245.9764 15.34399258 40707
STARLINK-35603
1 66141U 25237AD  26186.46594818  .00025399  00000+0  75985-3 0  9999
2 66141  53.1590 211.7794 0001241  74.6173 285.4967 15.34419715 40656
TJS-20
1 66142U 25238A   26186.62747117  .00000039  00000+0  00000+0 0  9997
2 66142   5.4302 299.4706 0004615 174.1954  98.2326  1.00272737  2516
STARLINK-35318
1 66146U 25240A   26186.57325686  .00029564  00000+0  88185-3 0  9999
2 66146  53.1574 233.3726 0000931  93.0026 267.1083 15.34429763 40116
STARLINK-33948
1 66147U 25240B   26186.34476318  .00018297  00000+0  55094-3 0  9998
2 66147  53.1590 236.1994 0001331 100.7100 259.4053 15.34422516 40050
STARLINK-35081
1 66148U 25240C   26186.37365588  .00026034  00000+0  77799-3 0  9992
2 66148  53.1567 234.2474 0001102  99.7667 260.3460 15.34440004 40031
STARLINK-35601
1 66149U 25240D   26186.75004630 -.00004298  00000+0 -11619-3 0  9992
2 66149  53.1602 234.2859 0001064  98.6441 352.9405 15.34385232  5909
STARLINK-35605
1 66150U 25240E   26186.52543774  .00025758  00000+0  77010-3 0  9995
2 66150  53.1592 235.1944 0000456 103.3272 256.7782 15.34430814 40033
STARLINK-35540
1 66151U 25240F   26186.42825735  .00030630  00000+0  91332-3 0  9993
2 66151  53.1568 233.8830 0001063 101.5371 258.5751 15.34422155 40047
STARLINK-35455
1 66152U 25240G   26186.56273632  .00025325  00000+0  75748-3 0  9990
2 66152  53.1563 233.3062 0001060  91.6910 268.4214 15.34427328 40063
STARLINK-34752
1 66153U 25240H   26186.39468332  .00019512  00000+0  58688-3 0  9990
2 66153  53.1585 234.3860 0001452  60.9367 299.1781 15.34411706 40035
STARLINK-34625
1 66154U 25240J   26186.75004630 -.00008876  00000+0 -25890-3 0  9990
2 66154  53.1590 234.5009 0001417  86.4336 254.5769 15.33543859  5170
STARLINK-35580
1 66155U 25240K   26186.41142800  .00020093  00000+0  60387-3 0  9999
2 66155  53.1565 233.7803 0000949  97.1945 262.9166 15.34418886 40041
STARLINK-35621
1 66156U 25240L   26186.53385885  .00029602  00000+0  88319-3 0  9995
2 66156  53.1592 235.2471 0001290  79.2428 280.8720 15.34422129 40036
STARLINK-35594
1 66157U 25240M   26186.32113025  .00034037  00000+0  10130-2 0  9991
2 66157  53.1586 234.6321 0000879 105.9398 254.1701 15.34428038 40029
STARLINK-35587
1 66158U 25240N   26186.55804458  .00029254  00000+0  99523-3 0  9993
2 66158  53.1571 235.3986 0000935  69.4989 290.6112 15.30222767 40031
STARLINK-35586
1 66159U 25240P   26186.34217520  .00029179  00000+0  87093-3 0  9994
2 66159  53.1564 234.7627 0001209  33.4201 326.6877 15.34416381 40020
STARLINK-35636
1 66160U 25240Q   26186.52754071  .00026354  00000+0  78768-3 0  9994
2 66160  53.1584 235.2097 0000421 124.6301 235.4741 15.34427931 40031
STARLINK-35635
1 66161U 25240R   26186.55909896  .00035252  00000+0  11957-2 0  9998
2 66161  53.1571 235.4053 0000880  68.4627 291.6468 15.30226151 40034
STARLINK-35633
1 66162U 25240S   26186.75004630  .00027322  00000+0  84110-3 0  9994
2 66162  53.1587 234.3155 0001055  80.4707 347.9184 15.33470826  5743
STARLINK-35607
1 66163U 25240T   26186.56063032  .00028037  00000+0  83703-3 0  9996
2 66163  53.1565 233.2772 0001034  95.3959 264.7161 15.34430417 40062
STARLINK-35614
1 66164U 25240U   26186.44721541  .00023297  00000+0  69921-3 0  9999
2 66164  53.1581 233.9908 0001086  98.3254 261.7872 15.34368107 40047
STARLINK-35575
1 66165U 25240V   26186.50601523  .00033874  00000+0  10084-2 0  9991
2 66165  53.1579 233.6478 0000721  82.8893 277.2191 15.34422785 40056
STARLINK-35624
1 66166U 25240W   26186.29167345  .00028663  00000+0  85546-3 0  9993
2 66166  53.1568 234.4401 0001129  95.2389 264.8743 15.34428066 40021
STARLINK-35641
1 66167U 25240X   26186.51022299  .00035303  00000+0  10501-2 0  9994
2 66167  53.1584 233.6698 0000881 106.5505 253.5595 15.34430128 40054
STARLINK-35578
1 66168U 25240Y   26186.66670139  .00037806  00000+0  11268-2 0  9994
2 66168  53.1593 234.5910 0001655  75.0271 310.9296 15.34333620  5889
STARLINK-35638
1 66169U 25240Z   26186.54649833  .00042482  00000+0  12634-2 0  9993
2 66169  53.1583 235.3136 0001438  73.2537 286.8623 15.34349618 40037
STARLINK-35585
1 66170U 25240AA  26186.51443278  .00051303  00000+0  15184-2 0  9992
2 66170  53.1583 233.6976 0000671 101.9883 258.1195 15.34415627 40055
STARLINK-35606
1 66171U 25240AB  26186.42404854  .00022870  00000+0  68546-3 0  9998
2 66171  53.1575 233.8438 0001135  78.1452 281.9678 15.34422829 40046
STARLINK-35627
1 66172U 25240AC  26186.55381903  .00022643  00000+0  77351-3 0  9994
2 66172  53.1581 235.3603 0000641  55.9453 304.1608 15.30232448 40032
STARLINK-35634
1 66173U 25240AD  26186.63207729  .00022898  00000+0  68616-3 0  9993
2 66173  53.1567 233.0095 0001130  90.9594 269.1538 15.34427220 40070
GAOFEN-14 02
1 66175U 25242A   26180.12465666  .00005345  00000+0  21419-3 0  9999
2 66175  97.4125 255.5750 0001846 133.5978 226.5413 15.25450102 37513
STARLINK-35363
1 66178U 25243B   26186.01408847  .00054867  00000+0  16198-2 0  9995
2 66178  53.1578  59.8008 0001259  80.5535 279.5610 15.34465414 38628
STARLINK-35346
1 66179U 25243C   26186.77682471  .00045765  00000+0  13591-2 0  9997
2 66179  53.1580  56.0307 0001423 108.1939 251.9219 15.34360666 38746
STARLINK-35335
1 66180U 25243D   26186.04146422  .00047760  00000+0  14152-2 0  9991
2 66180  53.1608  59.9713 0001348  90.1598 269.9559 15.34410882 38628
STARLINK-35342
1 66181U 25243E   26186.61506910 -.00007719  00000+0 -21795-3 0  9991
2 66181  53.1592  57.1518 0001364  98.4939 261.6218 15.34340080 38715
STARLINK-35333
1 66182U 25243F   26186.66758817  .00030770  00000+0  91922-3 0  9992
2 66182  53.1571  56.7725 0001977 323.7727  36.3141 15.34360187 38720
STARLINK-35310
1 66183U 25243G   26186.77892708  .00018869  00000+0  56944-3 0  9993
2 66183  53.1587  56.0443 0001286  59.7437 300.3693 15.34330750 38746
STARLINK-35317
1 66184U 25243H   26186.65286089  .00021431  00000+0  64512-3 0  9999
2 66184  53.1596  56.6808 0001359 100.0214 260.0942 15.34325048 38723
STARLINK-35377
1 66185U 25243J   26186.78524307  .00045295  00000+0  13453-2 0  9993
2 66185  53.1588  56.0873 0001540  89.6083 270.5096 15.34361519 38740
STARLINK-35365
1 66186U 25243K   26186.29568572 -.00010805  00000+0 -30938-3 0  9991
2 66186  53.1608  58.7190 0000841 167.9811 192.1211 15.34373963 38662
